SMOS                    
1 36036U 09059A   26115.78931653  .00000188  00000+0  74027-4 0  9998
2 36036  98.4435 303.8896 0001195  92.7955 267.3370 14.39744392865916
YAOGAN-7                
1 36110U 09069A   26115.68827116  .00000413  00000+0  64343-4 0  9990
2 36110  98.0136   1.8631 0023934 205.8382 154.1635 14.77956096881879
TANDEM-X                
1 36605U 10030A   26115.56296837  .00000379  00000+0  21216-4 0  9999
2 36605  97.4460 124.0199 0001886  96.4899 263.6550 15.19153613878652
CARTOSAT-2B             
1 36795U 10035A   26115.89483763  .00000313  00000+0  49817-4 0  9991
2 36795  98.0000 166.7659 0011384   7.4008 352.7369 14.78661146852122
YAOGAN-10               
1 36834U 10038A   26116.00543046  .00000623  00000+0  79017-4 0  9992
2 36834  97.9027 139.8226 0001342  85.8281 336.1835 14.85180793849469
COSMO-SKYMED 4          
1 37216U 10060A   26115.92057791  .00000415  00000+0  58664-4 0  9993
2 37216  97.8892 300.2769 0001370  77.3797 282.7569 14.82159919836827
RESOURCESAT-2           
1 37387U 11015A   26115.93545853  .00000112  00000+0  71021-4 0  9991
2 37387  98.7667 183.7311 0012124  52.7862 307.4420 14.21599244778752
HAIYANG-2A              
1 37781U 11043A   26115.94093390 -.00000211  00000+0 -17270-3 0  9992
2 37781  99.3415 119.7131 0006635 186.0282 174.0789 13.75947489739472
RASAT                   
1 37791U 11044D   26115.99254042  .00000253  00000+0  52401-4 0  9992
2 37791  98.0541 208.1933 0020694   1.9253 171.8351 14.68114205785528
SRMSAT                  
1 37841U 11058D   26115.91410207  .00000416  00000+0  82293-4 0  9995
2 37841  19.9735  15.8664 0011661 349.2043  93.3079 14.11562971750425
PLEIADES 1A             
1 38012U 11076F   26115.93016321  .00000016  00000+0  13319-4 0  9996
2 38012  98.1982 191.7306 0001050  78.8124  37.6500 14.58535650764376
ZIYUAN 1-02C (ZY 1-02C) 
1 38038U 11079A   26115.97417174  .00000130  00000+0  56897-4 0  9997
2 38038  98.4095 184.3681 0007683 101.9729   1.2214 14.38168796751706
ARIRANG-3 (KOMPSAT-3)   
1 38338U 12025B   26115.95615749  .00000489  00000+0  10641-3 0  9991
2 38338  98.1138  74.3320 0004035 283.1535  76.9216 14.62158625743718
EXACTVIEW-1 (ADS-1B)    
1 38709U 12039C   26115.92984381  .00000119  00000+0  70938-4 0  9992
2 38709  98.9702 232.1581 0010176 326.7352  33.3186 14.24968464715262
SPOT 6                  
1 38755U 12047A   26115.92302218  .00000101  00000+0  31621-4 0  9992
2 38755  98.2141 183.8359 0001209  83.9718 276.1619 14.58520950725432
PLEIADES 1B             
1 39019U 12068A   26115.94234656  .00000114  00000+0  34255-4 0  9991
2 39019  98.1953 191.7093 0001038  84.6913 275.4405 14.58562069713231
GOKTURK 2               
1 39030U 12073A   26115.93163176  .00000980  00000+0  15102-3 0  9997
2 39030  97.6861 315.9743 0001908 103.5938 256.5485 14.75491841716804
