[{"OBJECT_NAME":"SMOS","OBJECT_ID":"2009-059A","EPOCH":"2026-04-25T18:56:36.948192","MEAN_MOTION":14.39744392,"ECCENTRICITY":0.00011952,"INCLINATION":98.4435,"RA_OF_ASC_NODE":303.8896,"ARG_OF_PERICENTER":92.7955,"MEAN_ANOMALY":267.337,"EPHEMERIS_TYPE":0,"CLASSIFICATION_TYPE":"U","NORAD_CAT_ID":36036,"ELEMENT_SET_NO":999,"REV_AT_EPOCH":86591,"BSTAR":7.4027101e-5,"MEAN_MOTION_DOT":1.88e-6,"MEAN_MOTION_DDOT":0},{"OBJECT_NAME":"YAOGAN-7","OBJECT_ID":"2009-069A","EPOCH":"2026-04-25T16:31:06.628224","MEAN_MOTION":14.77956096,"ECCENTRICITY":0.00239344,"INCLINATION":98.0136,"RA_OF_ASC_NODE":1.8631,"ARG_OF_PERICENTER":205.8382,"MEAN_ANOMALY":154.1635,"EPHEMERIS_TYPE":0,"CLASSIFICATION_TYPE":"U","NORAD_CAT_ID":36110,"ELEMENT_SET_NO":999,"REV_AT_EPOCH":88187,"BSTAR":6.4343275e-5,"MEAN_MOTION_DOT":4.13e-6,"MEAN_MOTION_DDOT":0},{"OBJECT_NAME":"TANDEM-X","OBJECT_ID":"2010-030A","EPOCH":"2026-04-25T13:30:40.467168","MEAN_MOTION":15.19153613,"ECCENTRICITY":0.00018862,"INCLINATION":97.446,"RA_OF_ASC_NODE":124.0199,"ARG_OF_PERICENTER":96.4899,"MEAN_ANOMALY":263.655,"EPHEMERIS_TYPE":0,"CLASSIFICATION_TYPE":"U","NORAD_CAT_ID":36605,"ELEMENT_SET_NO":999,"REV_AT_EPOCH":87865,"BSTAR":2.1215721e-5,"MEAN_MOTION_DOT":3.79e-6,"MEAN_MOTION_DDOT":0},{"OBJECT_NAME":"CARTOSAT-2B","OBJECT_ID":"2010-035A","EPOCH":"2026-04-25T21:28:33.971232","MEAN_MOTION":14.78661146,"ECCENTRICITY":0.00113841,"INCLINATION":98,"RA_OF_ASC_NODE":166.7659,"ARG_OF_PERICENTER":7.4008,"MEAN_ANOMALY":352.7369,"EPHEMERIS_TYPE":0,"CLASSIFICATION_TYPE":"U","NORAD_CAT_ID":36795,"ELEMENT_SET_NO":999,"REV_AT_EPOCH":85212,"BSTAR":4.9816952e-5,"MEAN_MOTION_DOT":3.13e-6,"MEAN_MOTION_DDOT":0},{"OBJECT_NAME":"YAOGAN-10","OBJECT_ID":"2010-038A","EPOCH":"2026-04-26T00:07:49.191744","MEAN_MOTION":14.85180793,"ECCENTRICITY":0.00013428,"INCLINATION":97.9027,"RA_OF_ASC_NODE":139.8226,"ARG_OF_PERICENTER":85.8281,"MEAN_ANOMALY":336.1835,"EPHEMERIS_TYPE":0,"CLASSIFICATION_TYPE":"U","NORAD_CAT_ID":36834,"ELEMENT_SET_NO":999,"REV_AT_EPOCH":84946,"BSTAR":7.9017222e-5,"MEAN_MOTION_DOT":6.23e-6,"MEAN_MOTION_DDOT":0},{"OBJECT_NAME":"COSMO-SKYMED 4","OBJECT_ID":"2010-060A","EPOCH":"2026-04-25T22:05:37.931424","MEAN_MOTION":14.82159919,"ECCENTRICITY":0.00013704,"INCLINATION":97.8892,"RA_OF_ASC_NODE":300.2769,"ARG_OF_PERICENTER":77.3797,"MEAN_ANOMALY":282.7569,"EPHEMERIS_TYPE":0,"CLASSIFICATION_TYPE":"U","NORAD_CAT_ID":37216,"ELEMENT_SET_NO":999,"REV_AT_EPOCH":83682,"BSTAR":5.8664147e-5,"MEAN_MOTION_DOT":4.15e-6,"MEAN_MOTION_DDOT":0},{"OBJECT_NAME":"RESOURCESAT-2","OBJECT_ID":"2011-015A","EPOCH":"2026-04-25T22:27:03.616992","MEAN_MOTION":14.21599244,"ECCENTRICITY":0.00121242,"INCLINATION":98.7667,"RA_OF_ASC_NODE":183.7311,"ARG_OF_PERICENTER":52.7862,"MEAN_ANOMALY":307.442,"EPHEMERIS_TYPE":0,"CLASSIFICATION_TYPE":"U","NORAD_CAT_ID":37387,"ELEMENT_SET_NO":999,"REV_AT_EPOCH":77875,"BSTAR":7.1021155e-5,"MEAN_MOTION_DOT":1.12e-6,"MEAN_MOTION_DDOT":0},{"OBJECT_NAME":"HAIYANG-2A","OBJECT_ID":"2011-043A","EPOCH":"2026-04-25T22:34:56.688960","MEAN_MOTION":13.75947489,"ECCENTRICITY":0.00066354,"INCLINATION":99.3415,"RA_OF_ASC_NODE":119.7131,"ARG_OF_PERICENTER":186.0282,"MEAN_ANOMALY":174.0789,"EPHEMERIS_TYPE":0,"CLASSIFICATION_TYPE":"U","NORAD_CAT_ID":37781,"ELEMENT_SET_NO":999,"REV_AT_EPOCH":73947,"BSTAR":-0.00017270219,"MEAN_MOTION_DOT":-2.11e-6,"MEAN_MOTION_DDOT":0},{"OBJECT_NAME":"RASAT","OBJECT_ID":"2011-044D","EPOCH":"2026-04-25T23:49:15.492288","MEAN_MOTION":14.68114205,"ECCENTRICITY":0.00206947,"INCLINATION":98.0541,"RA_OF_ASC_NODE":208.1933,"ARG_OF_PERICENTER":1.9253,"MEAN_ANOMALY":171.8351,"EPHEMERIS_TYPE":0,"CLASSIFICATION_TYPE":"U","NORAD_CAT_ID":37791,"ELEMENT_SET_NO":999,"REV_AT_EPOCH":78552,"BSTAR":5.2400788e-5,"MEAN_MOTION_DOT":2.53e-6,"MEAN_MOTION_DDOT":0},{"OBJECT_NAME":"SRMSAT","OBJECT_ID":"2011-058D","EPOCH":"2026-04-25T21:56:18.418848","MEAN_MOTION":14.11562971,"ECCENTRICITY":0.00116614,"INCLINATION":19.9735,"RA_OF_ASC_NODE":15.8664,"ARG_OF_PERICENTER":349.2043,"MEAN_ANOMALY":93.3079,"EPHEMERIS_TYPE":0,"CLASSIFICATION_TYPE":"U","NORAD_CAT_ID":37841,"ELEMENT_SET_NO":999,"REV_AT_EPOCH":75042,"BSTAR":8.2292832e-5,"MEAN_MOTION_DOT":4.16e-6,"MEAN_MOTION_DDOT":0},{"OBJECT_NAME":"PLEIADES 1A","OBJECT_ID":"2011-076F","EPOCH":"2026-04-25T22:19:26.101344","MEAN_MOTION":14.5853565,"ECCENTRICITY":0.00010506,"INCLINATION":98.1982,"RA_OF_ASC_NODE":191.7306,"ARG_OF_PERICENTER":78.8124,"MEAN_ANOMALY":37.65,"EPHEMERIS_TYPE":0,"CLASSIFICATION_TYPE":"U","NORAD_CAT_ID":38012,"ELEMENT_SET_NO":999,"REV_AT_EPOCH":76437,"BSTAR":1.3319353e-5,"MEAN_MOTION_DOT":1.6e-7,"MEAN_MOTION_DDOT":0},{"OBJECT_NAME":"ZIYUAN 1-02C (ZY 1-02C)","OBJECT_ID":"2011-079A","EPOCH":"2026-04-25T23:22:48.438336","MEAN_MOTION":14.38168796,"ECCENTRICITY":0.00076831,"INCLINATION":98.4095,"RA_OF_ASC_NODE":184.3681,"ARG_OF_PERICENTER":101.9729,"MEAN_ANOMALY":1.2214,"EPHEMERIS_TYPE":0,"CLASSIFICATION_TYPE":"U","NORAD_CAT_ID":38038,"ELEMENT_SET_NO":999,"REV_AT_EPOCH":75170,"BSTAR":5.6896902e-5,"MEAN_MOTION_DOT":1.3e-6,"MEAN_MOTION_DDOT":0},{"OBJECT_NAME":"ARIRANG-3 (KOMPSAT-3)","OBJECT_ID":"2012-025B","EPOCH":"2026-04-25T22:56:52.007136","MEAN_MOTION":14.62158625,"ECCENTRICITY":0.00040358,"INCLINATION":98.1138,"RA_OF_ASC_NODE":74.332,"ARG_OF_PERICENTER":283.1535,"MEAN_ANOMALY":76.9216,"EPHEMERIS_TYPE":0,"CLASSIFICATION_TYPE":"U","NORAD_CAT_ID":38338,"ELEMENT_SET_NO":999,"REV_AT_EPOCH":74371,"BSTAR":0.00010640846,"MEAN_MOTION_DOT":4.89e-6,"MEAN_MOTION_DDOT":0},{"OBJECT_NAME":"EXACTVIEW-1 (ADS-1B)","OBJECT_ID":"2012-039C","EPOCH":"2026-04-25T22:18:58.505184","MEAN_MOTION":14.24968464,"ECCENTRICITY":0.00101767,"INCLINATION":98.9702,"RA_OF_ASC_NODE":232.1581,"ARG_OF_PERICENTER":326.7352,"MEAN_ANOMALY":33.3186,"EPHEMERIS_TYPE":0,"CLASSIFICATION_TYPE":"U","NORAD_CAT_ID":38709,"ELEMENT_SET_NO":999,"REV_AT_EPOCH":71526,"BSTAR":7.0937943e-5,"MEAN_MOTION_DOT":1.19e-6,"MEAN_MOTION_DDOT":0},{"OBJECT_NAME":"SPOT 6","OBJECT_ID":"2012-047A","EPOCH":"2026-04-25T22:09:09.116352","MEAN_MOTION":14.5852095,"ECCENTRICITY":0.00012099,"INCLINATION":98.2141,"RA_OF_ASC_NODE":183.8359,"ARG_OF_PERICENTER":83.9718,"MEAN_ANOMALY":276.1619,"EPHEMERIS_TYPE":0,"CLASSIFICATION_TYPE":"U","NORAD_CAT_ID":38755,"ELEMENT_SET_NO":999,"REV_AT_EPOCH":72543,"BSTAR":3.1621112e-5,"MEAN_MOTION_DOT":1.01e-6,"MEAN_MOTION_DDOT":0},{"OBJECT_NAME":"PLEIADES 1B","OBJECT_ID":"2012-068A","EPOCH":"2026-04-25T22:36:58.742784","MEAN_MOTION":14.58562069,"ECCENTRICITY":0.00010382,"INCLINATION":98.1953,"RA_OF_ASC_NODE":191.7093,"ARG_OF_PERICENTER":84.6913,"MEAN_ANOMALY":275.4405,"EPHEMERIS_TYPE":0,"CLASSIFICATION_TYPE":"U","NORAD_CAT_ID":39019,"ELEMENT_SET_NO":999,"REV_AT_EPOCH":71323,"BSTAR":3.4255179e-5,"MEAN_MOTION_DOT":1.14e-6,"MEAN_MOTION_DDOT":0},{"OBJECT_NAME":"GOKTURK 2","OBJECT_ID":"2012-073A","EPOCH":"2026-04-25T22:21:32.984064","MEAN_MOTION":14.75491841,"ECCENTRICITY":0.00019089,"INCLINATION":97.6861,"RA_OF_ASC_NODE":315.9743,"ARG_OF_PERICENTER":103.5938,"MEAN_ANOMALY":256.5485,"EPHEMERIS_TYPE":0,"CLASSIFICATION_TYPE":"U","NORAD_CAT_ID":39030,"ELEMENT_SET_NO":999,"REV_AT_EPOCH":71680,"BSTAR":0.00015101749,"MEAN_MOTION_DOT":9.8e-6,"MEAN_MOTION_DDOT":0}]
